{"type": "FeatureCollection", "features": [{"type": "Feature", "properties": {"elevation_units": 3.01, "placeholder": true, "note": "SYNTHETIC placeholder contour line \u2014 derived from a procedurally generated elevation field, NOT real elevation/LiDAR data."}, "geometry": {"type": "LineString", "coordinates": [[-81.26815615, 33.35087729], [-81.2681494, 33.35085564], [-81.26814086, 33.35084011], [-81.26813575, 33.35083441], [-81.2681299, 33.35083002], [-81.26812392, 33.35082743], [-81.26811794, 33.35082657], [-81.26811195, 33.35082742], [-81.26810597, 33.35083011], [-81.26810049, 33.35083445], [-81.26809551, 33.35084024], [-81.26808604, 33.35085724], [-81.26807998, 33.35087729]]}}, {"type": "Feature", "properties": {"elevation_units": 8.12, "placeholder": true, "note": "SYNTHETIC placeholder contour line \u2014 derived from a procedurally generated elevation field, NOT real elevation/LiDAR data."}, "geometry": {"type": "LineString", "coordinates": [[-81.26818548, 33.35087729], [-81.26818034, 33.3508494], [-81.26817525, 33.35082924], [-81.26816857, 33.35081068], [-81.2681611, 33.35079611], [-81.26815258, 33.35078528], [-81.26814236, 33.35077734], [-81.2681304, 33.35077214], [-81.26811794, 33.3507704], [-81.26810548, 33.35077216], [-81.26809277, 33.35077737], [-81.26808267, 33.35078487], [-81.26807458, 33.35079492], [-81.26806824, 33.35080735], [-81.26806261, 33.35082421], [-81.26805554, 33.35085065], [-81.26805069, 33.35087729]]}}, {"type": "Feature", "properties": {"elevation_units": 13.23, "placeholder": true, "note": "SYNTHETIC placeholder contour line \u2014 derived from a procedurally generated elevation field, NOT real elevation/LiDAR data."}, "geometry": {"type": "LineString", "coordinates": [[-81.26833623, 33.35075625], [-81.2683321, 33.35076613], [-81.26832935, 33.35077696], [-81.26832019, 33.35084315], [-81.26831412, 33.35087729]]}}, {"type": "Feature", "properties": {"elevation_units": 13.23, "placeholder": true, "note": "SYNTHETIC placeholder contour line \u2014 derived from a procedurally generated elevation field, NOT real elevation/LiDAR data."}, "geometry": {"type": "LineString", "coordinates": [[-81.26821287, 33.35087729], [-81.26820818, 33.35085148], [-81.26819917, 33.35078208], [-81.26819436, 33.35076488], [-81.26818734, 33.3507499], [-81.26818311, 33.35074407], [-81.26817824, 33.3507394], [-81.26817226, 33.35073549], [-81.26816528, 33.35073238], [-81.26815531, 33.35072933], [-81.26814335, 33.35072685], [-81.26812043, 33.35072498], [-81.26809302, 33.35072668], [-81.26807208, 33.35073042], [-81.26806511, 33.35073294], [-81.26805962, 33.35073603], [-81.26805514, 33.35073991], [-81.26805115, 33.35074507], [-81.26804417, 33.35076025], [-81.2680381, 33.3507832], [-81.26803471, 33.35080152], [-81.2680292, 33.35084232], [-81.26802237, 33.35087729]]}}, {"type": "Feature", "properties": {"elevation_units": 13.23, "placeholder": true, "note": "SYNTHETIC placeholder contour line \u2014 derived from a procedurally generated elevation field, NOT real elevation/LiDAR data."}, "geometry": {"type": "LineString", "coordinates": [[-81.26826021, 33.35051093], [-81.268253, 33.35051403], [-81.26824651, 33.35052009], [-81.26824004, 33.35052999], [-81.26823478, 33.35054216], [-81.26823014, 33.35055839], [-81.26822676, 33.35057588], [-81.26822491, 33.35059336], [-81.26822416, 33.35061376], [-81.26822519, 33.35062708], [-81.26822913, 33.35064915], [-81.26823157, 33.35065913], [-81.26823456, 33.35066607], [-81.26823954, 33.35067242], [-81.26824602, 33.350677], [-81.268254, 33.35067991], [-81.26826247, 33.35068078], [-81.26827244, 33.35067943], [-81.2682819, 33.35067563], [-81.26828938, 33.35066987], [-81.26829498, 33.35066206], [-81.26829855, 33.3506529], [-81.26830084, 33.35064107], [-81.2683019, 33.3506046], [-81.26830075, 33.35058712], [-81.26829687, 33.35056172], [-81.26829337, 33.35054622], [-81.26828888, 33.35053369], [-81.2682829, 33.35052291], [-81.26827592, 33.35051523], [-81.26826845, 33.35051129], [-81.26826021, 33.35051093]]}}, {"type": "Feature", "properties": {"elevation_units": 13.23, "placeholder": true, "note": "SYNTHETIC placeholder contour line \u2014 derived from a procedurally generated elevation field, NOT real elevation/LiDAR data."}, "geometry": {"type": "LineString", "coordinates": [[-81.26798736, 33.35067861], [-81.26799334, 33.35067426], [-81.26799882, 33.35066791], [-81.26800348, 33.35065997], [-81.2680068, 33.3506512], [-81.26800975, 33.35063333], [-81.26801041, 33.35059836], [-81.26800829, 33.35057399], [-81.26800331, 33.3505483], [-81.26799633, 33.35053015], [-81.26799203, 33.35052301], [-81.26798736, 33.35051733]]}}, {"type": "Feature", "properties": {"elevation_units": 18.35, "placeholder": true, "note": "SYNTHETIC placeholder contour line \u2014 derived from a procedurally generated elevation field, NOT real elevation/LiDAR data."}, "geometry": {"type": "LineString", "coordinates": [[-81.26826047, 33.35079603], [-81.26826396, 33.35079623], [-81.26826745, 33.35079784], [-81.26827094, 33.35080106], [-81.2682738, 33.35080527], [-81.26827848, 33.35081734], [-81.26828059, 33.35083149], [-81.26827967, 33.35084398], [-81.26827592, 33.35085572], [-81.26826994, 33.35086512], [-81.26826658, 33.35086771], [-81.26826346, 33.35086852], [-81.26826047, 33.35086782], [-81.26825751, 33.35086563], [-81.26825224, 33.35085772], [-81.26824784, 33.35084565], [-81.26824605, 33.35083316], [-81.26824671, 33.35081901], [-81.26824951, 33.35080727], [-81.26825424, 33.35079944], [-81.26825699, 33.35079726], [-81.26826047, 33.35079603]]}}, {"type": "Feature", "properties": {"elevation_units": 18.35, "placeholder": true, "note": "SYNTHETIC placeholder contour line \u2014 derived from a procedurally generated elevation field, NOT real elevation/LiDAR data."}, "geometry": {"type": "LineString", "coordinates": [[-81.26833623, 33.35060655], [-81.26832526, 33.35054498], [-81.26831869, 33.35051343], [-81.26831348, 33.35049553], [-81.26830645, 33.35047971], [-81.26830134, 33.3504715], [-81.26829536, 33.35046414], [-81.26828888, 33.35045817], [-81.2682824, 33.35045399], [-81.26827543, 33.3504512], [-81.26826745, 33.35044972], [-81.26825948, 33.35044975], [-81.2682515, 33.35045119], [-81.26824054, 33.3504561], [-81.26823157, 33.35046406], [-81.2682231, 33.35047649], [-81.2682157, 33.35049262], [-81.26820922, 33.35051177], [-81.26820414, 33.35053133], [-81.26819155, 33.35060044], [-81.26818522, 33.35062708], [-81.26817924, 33.35064487], [-81.26817142, 33.35065872], [-81.26816478, 33.3506661], [-81.26815665, 33.35067205], [-81.26814684, 33.35067669], [-81.26813538, 33.35067994], [-81.26812292, 33.35068148], [-81.26810996, 33.35068121], [-81.2680985, 33.35067924], [-81.26808753, 33.35067542], [-81.26807647, 33.35066955], [-81.2680676, 33.35066289], [-81.26806112, 33.35065548], [-81.26805593, 33.35064624], [-81.26805073, 33.35063208], [-81.26804579, 33.35061335], [-81.26803457, 33.35054632], [-81.26802623, 33.3505085], [-81.2680225, 33.35049553], [-81.26801619, 33.35048179], [-81.26800697, 33.35046847], [-81.26799764, 33.35045931], [-81.26798736, 33.35045333]]}}, {"type": "Feature", "properties": {"elevation_units": 23.46, "placeholder": true, "note": "SYNTHETIC placeholder contour line \u2014 derived from a procedurally generated elevation field, NOT real elevation/LiDAR data."}, "geometry": {"type": "LineString", "coordinates": [[-81.26833623, 33.35045702], [-81.26832825, 33.35043659], [-81.26831999, 33.35042226], [-81.26831081, 33.35041367], [-81.26829885, 33.3504081], [-81.26828938, 33.3504059], [-81.26827692, 33.3504046], [-81.26825998, 33.35040412], [-81.26824702, 33.35040488], [-81.26823755, 33.35040651], [-81.26822858, 33.35040927], [-81.2682205, 33.3504131], [-81.26821313, 33.35041804], [-81.26820665, 33.35042407], [-81.26820107, 33.35043142], [-81.26819669, 33.35043974], [-81.26819327, 33.35044932], [-81.26818676, 33.35047763], [-81.26817103, 33.35056256], [-81.26816515, 33.35058504], [-81.26815886, 33.35060127], [-81.26814961, 33.35061709], [-81.26814485, 33.35062253], [-81.26813937, 33.35062702], [-81.26813289, 33.35063061], [-81.26812591, 33.35063296], [-81.26811893, 33.35063399], [-81.26811195, 33.35063365], [-81.26810597, 33.35063212], [-81.26810049, 33.35062959], [-81.26808993, 33.35062126], [-81.26807987, 33.35060835], [-81.26807231, 33.35059295], [-81.26806492, 33.35056547], [-81.26805046, 33.35048138], [-81.26804317, 33.35045015], [-81.26803711, 33.35043516], [-81.26802787, 33.35042184], [-81.26801769, 33.3504131], [-81.2680048, 33.35040755], [-81.26798736, 33.3504043]]}}, {"type": "Feature", "properties": {"elevation_units": 28.57, "placeholder": true, "note": "SYNTHETIC placeholder contour line \u2014 derived from a procedurally generated elevation field, NOT real elevation/LiDAR data."}, "geometry": {"type": "LineString", "coordinates": [[-81.26811644, 33.35043635], [-81.26812292, 33.35043643], [-81.2681289, 33.35043838], [-81.26813395, 33.35044183], [-81.26813873, 33.35044724], [-81.26814236, 33.35045361], [-81.26814506, 33.35046139], [-81.26814698, 33.35047929], [-81.26814586, 33.3505151], [-81.26814373, 33.35052717], [-81.26813986, 33.35054095], [-81.26813538, 33.35055163], [-81.26812971, 33.35056006], [-81.26812342, 33.35056532], [-81.26811694, 33.35056705], [-81.26811195, 33.35056589], [-81.26810725, 33.35056256], [-81.26810298, 33.35055712], [-81.2680995, 33.35054998], [-81.26809044, 33.35051718], [-81.2680882, 33.35049386], [-81.26808963, 33.35047013], [-81.26809152, 33.35046176], [-81.26809451, 33.35045418], [-81.26809881, 33.35044724], [-81.26810398, 33.35044188], [-81.26810996, 33.35043819], [-81.26811644, 33.35043635]]}}, {"type": "Feature", "properties": {"elevation_units": 28.57, "placeholder": true, "note": "SYNTHETIC placeholder contour line \u2014 derived from a procedurally generated elevation field, NOT real elevation/LiDAR data."}, "geometry": {"type": "LineString", "coordinates": [[-81.26831393, 33.35034982], [-81.26830533, 33.35035422], [-81.26829436, 33.35035745], [-81.26828091, 33.35035962], [-81.26826645, 33.35036041], [-81.268252, 33.35035966], [-81.26823755, 33.3503574], [-81.26822609, 33.35035418], [-81.26821685, 33.35034982]]}}]}