{
  "type": "FeatureCollection",
  "features": [
    {
      "type": "Feature",
      "properties": {
        "placeholder": true,
        "note": "SYNTHETIC placeholder parcel boundary \u2014 NOT a real address or parcel record. Generated as a rectangle covering ~90% of the sample ortho.tif COG's real extent (a cropped, reprojected OpenAerialMap drone orthophoto), purely so the polygon visually overlaps the sample raster layers on a map. Do not treat as survey data.",
        "slug": "2806-prado"
      },
      "geometry": {
        "type": "Polygon",
        "coordinates": [
          [
            [
              -81.26831900959118,
              33.350376005746924
            ],
            [
              -81.26800457723343,
              33.350376005746924
            ],
            [
              -81.26800457723343,
              33.350851102880284
            ],
            [
              -81.26831900959118,
              33.350851102880284
            ],
            [
              -81.26831900959118,
              33.350376005746924
            ]
          ]
        ]
      }
    }
  ]
}